$$SOE
2461302.500000000, A.D. 2026-Sep-19 00:00:00.0000, -5.132891066518282E+07, 4.709492411630174E+08, 6.603430591561720E+07,
2461309.500000000, A.D. 2026-Sep-26 00:00:00.0000, -6.156724135840002E+07, 4.702882504893035E+08, 6.461095785531974E+07,
2461316.500000000, A.D. 2026-Oct-03 00:00:00.0000, -7.177848777631539E+07, 4.694191269876188E+08, 6.315899086821979E+07,
2461323.500000000, A.D. 2026-Oct-10 00:00:00.0000, -8.195821038856293E+07, 4.683427410295270E+08, 6.167911311541060E+07,
2461330.500000000, A.D. 2026-Oct-17 00:00:00.0000, -9.210200686857183E+07, 4.670600658949143E+08, 6.017204382287115E+07,
2461337.500000000, A.D. 2026-Oct-24 00:00:00.0000, -1.022055147980248E+08, 4.655721761799596E+08, 5.863851269905904E+07,
2461344.500000000, A.D. 2026-Oct-31 00:00:00.0000, -1.122644142062393E+08, 4.638802459653686E+08, 5.707925932874963E+07,
2461351.500000000, A.D. 2026-Nov-07 00:00:00.0000, -1.222744296034239E+08, 4.619855468230382E+08, 5.549503251921603E+07,
2461358.500000000, A.D. 2026-Nov-14 00:00:00.0000, -1.322313313054407E+08, 4.598894465532588E+08, 5.388658965409157E+07,
2461365.500000000, A.D. 2026-Nov-21 00:00:00.0000, -1.421309378600451E+08, 4.575934093401106E+08, 5.225469627807984E+07,
2461372.500000000, A.D. 2026-Nov-28 00:00:00.0000, -1.519691205693848E+08, 4.550989943212188E+08, 5.060012575912157E+07,
2461379.500000000, A.D. 2026-Dec-05 00:00:00.0000, -1.617418064872993E+08, 4.524078519173981E+08, 4.892365864318800E+07,
2461386.500000000, A.D. 2026-Dec-12 00:00:00.0000, -1.714449797261714E+08, 4.495217210378062E+08, 4.722608194196993E+07,
2461393.500000000, A.D. 2026-Dec-19 00:00:00.0000, -1.810746829585353E+08, 4.464424271718210E+08, 4.550818852792835E+07,
2461400.500000000, A.D. 2026-Dec-26 00:00:00.0000, -1.906270192540574E+08, 4.431718805020007E+08, 4.377077657944819E+07,
2461407.500000000, A.D. 2027-Jan-02 00:00:00.0000, -2.000981539760967E+08, 4.397120738495113E+08, 4.201464903598341E+07,
2461414.500000000, A.D. 2027-Jan-09 00:00:00.0000, -2.094843166221686E+08, 4.360650804756539E+08, 4.024061305507550E+07,
2461421.500000000, A.D. 2027-Jan-16 00:00:00.0000, -2.187818025746561E+08, 4.322330517527524E+08, 3.844947946966040E+07,
2461428.500000000, A.D. 2027-Jan-23 00:00:00.0000, -2.279869747173734E+08, 4.282182146693981E+08, 3.664206223894680E+07,
2461435.500000000, A.D. 2027-Jan-30 00:00:00.0000, -2.370962647317742E+08, 4.240228691263953E+08, 3.481917787224829E+07,
2461442.500000000, A.D. 2027-Feb-06 00:00:00.0000, -2.461061736499307E+08, 4.196493853669288E+08, 3.298164481496882E+07,
2461449.500000000, A.D. 2027-Feb-13 00:00:00.0000, -2.550132721272317E+08, 4.151002027642881E+08, 3.113028293898183E+07,
2461456.500000000, A.D. 2027-Feb-20 00:00:00.0000, -2.638142028011371E+08, 4.103778291808642E+08, 2.926591328985068E+07,
2461463.500000000, A.D. 2027-Feb-27 00:00:00.0000, -2.725056833404594E+08, 4.054848376880859E+08, 2.738935770035726E+07,
2461470.500000000, A.D. 2027-Mar-06 00:00:00.0000, -2.810845071683775E+08, 4.004238625712420E+08, 2.550143815084881E+07,
2461477.500000000, A.D. 2027-Mar-13 00:00:00.0000, -2.895475434624782E+08, 3.951975966725594E+08, 2.360297619090587E+07,
2461484.500000000, A.D. 2027-Mar-20 00:00:00.0000, -2.978917375626991E+08, 3.898087892425594E+08, 2.169479245779034E+07,
2461491.500000000, A.D. 2027-Mar-27 00:00:00.0000, -3.061141115858248E+08, 3.842602437538964E+08, 1.977770622830674E+07,
2461498.500000000, A.D. 2027-Apr-03 00:00:00.0000, -3.142117650447263E+08, 3.785548156324825E+08, 1.785253498161286E+07,
2461505.500000000, A.D. 2027-Apr-10 00:00:00.0000, -3.221818754125527E+08, 3.726954099314779E+08, 1.592009396930847E+07,
2461512.500000000, A.D. 2027-Apr-17 00:00:00.0000, -3.300216986114127E+08, 3.666849789363195E+08, 1.398119578967533E+07,
2461519.500000000, A.D. 2027-Apr-24 00:00:00.0000, -3.377285693480374E+08, 3.605265196410030E+08, 1.203664995378849E+07,
2461526.500000000, A.D. 2027-May-01 00:00:00.0000, -3.452999009985648E+08, 3.542230711256059E+08, 1.008726241836557E+07,
2461533.500000000, A.D. 2027-May-08 00:00:00.0000, -3.527331847370795E+08, 3.477777125853983E+08, 8.133835118391573E+06,
2461540.500000000, A.D. 2027-May-15 00:00:00.0000, -3.600259894075705E+08, 3.411935629672481E+08, 6.177165714754641E+06,
2461547.500000000, A.D. 2027-May-22 00:00:00.0000, -3.671759637057558E+08, 3.344737796249405E+08, 4.218047488461331E+06,
2461554.500000000, A.D. 2027-May-29 00:00:00.0000, -3.741808373154252E+08, 3.276215545269928E+08, 2.257268953730807E+06,
2461561.500000000, A.D. 2027-Jun-05 00:00:00.0000, -3.810384201161098E+08, 3.206401111486869E+08, 2.956133649577051E+05,
2461568.500000000, A.D. 2027-Jun-12 00:00:00.0000, -3.877466014733668E+08, 3.135327024818226E+08, -1.666141663022324E+06,
2461575.500000000, A.D. 2027-Jun-19 00:00:00.0000, -3.943033499455552E+08, 3.063026092297246E+08, -3.627224467415512E+06,
2461582.500000000, A.D. 2027-Jun-26 00:00:00.0000, -4.007067131297787E+08, 2.989531379278755E+08, -5.586869629579693E+06,
2461589.500000000, A.D. 2027-Jul-03 00:00:00.0000, -4.069548175171511E+08, 2.914876189996829E+08, -7.544318258045837E+06,
2461596.500000000, A.D. 2027-Jul-10 00:00:00.0000, -4.130458683230858E+08, 2.839094047572832E+08, -9.498818264958516E+06,
2461603.500000000, A.D. 2027-Jul-17 00:00:00.0000, -4.189781492589222E+08, 2.762218673097368E+08, -1.144962464229234E+07,
2461610.500000000, A.D. 2027-Jul-24 00:00:00.0000, -4.247500220910888E+08, 2.684283963170576E+08, -1.339599975719057E+07,
2461617.500000000, A.D. 2027-Jul-31 00:00:00.0000, -4.303599255788431E+08, 2.605323968267846E+08, -1.533721368479452E+07,
2461624.500000000, A.D. 2027-Aug-07 00:00:00.0000, -4.358063739936862E+08, 2.525372883458639E+08, -1.727254446596257E+07,
2461631.500000000, A.D. 2027-Aug-14 00:00:00.0000, -4.410879575243101E+08, 2.444465048958234E+08, -1.920127809960414E+07,
2461638.500000000, A.D. 2027-Aug-21 00:00:00.0000, -4.462033439507989E+08, 2.362634926889489E+08, -2.112270860136488E+07,
2461645.500000000, A.D. 2027-Aug-28 00:00:00.0000, -4.511512781566849E+08, 2.279917066289872E+08, -2.303613834471653E+07,
2461652.500000000, A.D. 2027-Sep-04 00:00:00.0000, -4.559305806609055E+08, 2.196346081369506E+08, -2.494087837134035E+07,
2461659.500000000, A.D. 2027-Sep-11 00:00:00.0000, -4.605401465685666E+08, 2.111956636400298E+08, -2.683624859708253E+07,
2461666.500000000, A.D. 2027-Sep-18 00:00:00.0000, -4.649789448111164E+08, 2.026783430742267E+08, -2.872157797924980E+07,
2461673.500000000, A.D. 2027-Sep-25 00:00:00.0000, -4.692460174502500E+08, 1.940861183243389E+08, -3.059620467303192E+07,
2461680.500000000, A.D. 2027-Oct-02 00:00:00.0000, -4.733404789731362E+08, 1.854224616303045E+08, -3.245947618215071E+07,
2461687.500000000, A.D. 2027-Oct-09 00:00:00.0000, -4.772615155585515E+08, 1.766908439567817E+08, -3.431074950658718E+07,
2461694.500000000, A.D. 2027-Oct-16 00:00:00.0000, -4.810083842522897E+08, 1.678947332721724E+08, -3.614939129799756E+07,
2461701.500000000, A.D. 2027-Oct-23 00:00:00.0000, -4.845804117931666E+08, 1.590375927320844E+08, -3.797477804735492E+07,
2461708.500000000, A.D. 2027-Oct-30 00:00:00.0000, -4.879769927159124E+08, 1.501228793778099E+08, -3.978629628945589E+07,
2461715.500000000, A.D. 2027-Nov-06 00:00:00.0000, -4.911975878956602E+08, 1.411540444777566E+08, -4.158334262555259E+07,
2461722.500000000, A.D. 2027-Nov-13 00:00:00.0000, -4.942417255217011E+08, 1.321345334355732E+08, -4.336532355206406E+07,
2461729.500000000, A.D. 2027-Nov-20 00:00:00.0000, -4.971090016005200E+08, 1.230677830798871E+08, -4.513165554046907E+07,
2461736.500000000, A.D. 2027-Nov-27 00:00:00.0000, -4.997990783705096E+08, 1.139572193001931E+08, -4.688176527432670E+07,
2461743.500000000, A.D. 2027-Dec-04 00:00:00.0000, -5.023116826525248E+08, 1.048062559415624E+08, -4.861508978311054E+07,
2461750.500000000, A.D. 2027-Dec-11 00:00:00.0000, -5.046466046889076E+08, 9.561829399344260E+07, -5.033107650149476E+07,
2461757.500000000, A.D. 2027-Dec-18 00:00:00.0000, -5.068036971978226E+08, 8.639672073336127E+07, -5.202918330736698E+07,
2461764.500000000, A.D. 2027-Dec-25 00:00:00.0000, -5.087828744921147E+08, 7.714490882317705E+07, -5.370887855289941E+07,
2461771.500000000, A.D. 2028-Jan-01 00:00:00.0000, -5.105841116222952E+08, 6.786621537199096E+07, -5.536964109145957E+07,
$$EOE